[{"OBJECT_NAME":"AII-BRAVO","OBJECT_ID":"2021-034C","EPOCH":"2026-03-09T16:41:41.144640","MEAN_MOTION":15.02621336,"ECCENTRICITY":0.00053718,"INCLINATION":97.5758,"RA_OF_ASC_NODE":125.8704,"ARG_OF_PERICENTER":233.3237,"MEAN_ANOMALY":126.7495,"EPHEMERIS_TYPE":0,"CLASSIFICATION_TYPE":"U","NORAD_CAT_ID":48270,"ELEMENT_SET_NO":999,"REV_AT_EPOCH":26467,"BSTAR":0.00046526558,"MEAN_MOTION_DOT":6.142e-5,"MEAN_MOTION_DDOT":0},{"OBJECT_NAME":"STARLINK-5628","OBJECT_ID":"2023-015T","EPOCH":"2026-03-09T09:32:08.880000","MEAN_MOTION":15.02533041,"ECCENTRICITY":0.00014187,"INCLINATION":43.0067,"RA_OF_ASC_NODE":327.264,"ARG_OF_PERICENTER":267.1501,"MEAN_ANOMALY":92.9179,"EPHEMERIS_TYPE":0,"CLASSIFICATION_TYPE":"U","NORAD_CAT_ID":55466,"ELEMENT_SET_NO":999,"REV_AT_EPOCH":17071,"BSTAR":-1.7660136e-5,"MEAN_MOTION_DOT":-4.42e-6,"MEAN_MOTION_DDOT":0}]
